STARLINK-37278          
1 68733U 26082F   26113.55238647 -.00635469  00000+0 -34789-2 0  9995
2 68733  97.2891 335.6732 0001237 125.1038 235.0347 15.81344406  1187
