{
  "norad_id": 68733,
  "name": "STARLINK-37278",
  "history": [
    {
      "epoch": "2026-04-23T13:15:26.191008Z",
      "apogee_km": 327.4674060755369,
      "perigee_km": 325.80824249751913,
      "latitude_deg": 4.400928414139031e-05,
      "longitude_deg": -74.7839131429609,
      "height_km": 330.2898456975037,
      "semi_major_axis_km": 6704.774824286527,
      "eccentricity": 0.00012373,
      "inclination_deg": 97.2891,
      "raan_deg": 335.6732,
      "arg_perigee_deg": 125.1038,
      "mean_anomaly_deg": 235.0347,
      "mean_motion_rev_day": 15.81344406
    }
  ]
}